      2.10          N: GNSS NAV DATA                        RINEX VERSION / TYPE
fic2rin                                 05/29/2019 00:19:21 PGM / RUN BY / DATE
                                                            END OF HEADER
 2 19  5 29  0  0  0.0-2.242848277092e-04-9.094947017729e-12 0.000000000000e+00
    6.300000000000e+01 2.406250000000e+01 4.784127849557e-09-2.670808006537e+00
    1.331791281700e-06 1.887812535278e-02 6.303191184998e-06 5.153718645096e+03
    2.592000000000e+05 3.371387720108e-07-3.048164394019e+00 1.285225152969e-07
    9.550526984412e-01 2.505937500000e+02-1.738940890462e+00-7.968189049915e-09
    4.378753821244e-10 1.000000000000e+00 2.055000000000e+03 0.000000000000e+00
    2.400000000000e+00 0.000000000000e+00-2.048909664154e-08 6.300000000000e+01
    2.520000000000e+05 4.000000000000e+00
 1 19  5 29  0  0  0.0-2.741860225797e-05-9.208633855451e-12 0.000000000000e+00
    5.900000000000e+01 2.034375000000e+01 4.384468344991e-09-2.950986413549e+00
    9.052455425262e-07 8.871190831997e-03 6.895512342453e-06 5.153652368546e+03
    2.592000000000e+05-4.470348358154e-08-2.979424407249e+00-2.179294824600e-07
    9.759390329438e-01 2.545000000000e+02 7.069351841966e-01-7.910686654709e-09
    3.725155167665e-10 1.000000000000e+00 2.055000000000e+03 0.000000000000e+00
    2.400000000000e+00 0.000000000000e+00 5.587935447693e-09 5.900000000000e+01
    2.520000000000e+05 4.000000000000e+00
 8 19  5 29  0  0  0.0-1.453212462366e-04-1.477928890381e-12 0.000000000000e+00
    7.000000000000e+00-2.153125000000e+01 4.153030133232e-09-6.063683613104e-01
   -1.190230250359e-06 4.403415718116e-03 9.601935744286e-06 5.153749469757e+03
    2.592000000000e+05 4.284083843231e-08 2.237252687697e+00-7.636845111847e-08
    9.702883333866e-01 1.951562500000e+02-2.231255601323e-01-7.936402011571e-09
    7.428880871279e-11 1.000000000000e+00 2.055000000000e+03 0.000000000000e+00
    2.400000000000e+00 0.000000000000e+00 5.122274160385e-09 7.000000000000e+00
    2.520000000000e+05 4.000000000000e+00
11 19  5 29  0  0  0.0-5.967849865556e-04 8.299139153678e-12 0.000000000000e+00
    8.000000000000e+00 2.615625000000e+01 5.612019477423e-09 2.615746795348e+00
    1.246109604836e-06 1.662994676735e-02 8.016824722290e-06 5.153709352493e+03
    2.592000000000e+05 3.166496753693e-07 2.853038467110e+00-5.215406417847e-08
    9.097999594487e-01 1.930000000000e+02 1.888976109723e+00-8.379277601974e-09
    2.400099973798e-10 1.000000000000e+00 2.055000000000e+03 0.000000000000e+00
    2.400000000000e+00 0.000000000000e+00-1.257285475731e-08 8.000000000000e+00
    2.520000000000e+05 4.000000000000e+00
22 19  5 29  0  0  0.0-7.084324024618e-04-6.025402399246e-12 0.000000000000e+00
    4.200000000000e+01-4.534375000000e+01 5.609876531018e-09-1.599466519241e+00
   -2.300366759300e-06 7.237699930556e-03 5.416572093964e-06 5.153792642593e+03
    2.592000000000e+05-9.313225746155e-08-2.010453203377e+00 1.918524503708e-07
    9.271491979542e-01 2.557187500000e+02-1.342442636844e+00-8.665003789331e-09
   -2.146517982518e-10 1.000000000000e+00 2.055000000000e+03 0.000000000000e+00
    2.400000000000e+00 0.000000000000e+00-1.816079020500e-08 4.200000000000e+01
    2.520000000000e+05 4.000000000000e+00
13 19  5 29  0  0  0.0-6.159534677863e-05 1.705302565824e-12 0.000000000000e+00
    2.500000000000e+01 1.109375000000e+01 4.111599836065e-09-1.784874165779e+00
    5.140900611877e-07 3.522357204929e-03 1.069903373718e-05 5.153669267654e+03
    2.592000000000e+05 1.098960638046e-07-7.675646156215e-01 1.862645149231e-08
    9.679408575019e-01 1.792500000000e+02 1.291648902521e+00-7.731393472143e-09
   -1.896507568581e-10 1.000000000000e+00 2.055000000000e+03 0.000000000000e+00
    2.400000000000e+00 0.000000000000e+00-1.117587089539e-08 2.500000000000e+01
    2.520000000000e+05 4.000000000000e+00
 7 19  5 29  0  0  0.0-3.345170989633e-05-7.503331289627e-12 0.000000000000e+00
    6.800000000000e+01 6.934375000000e+01 4.574119101849e-09 2.738076508380e+00
    3.492459654808e-06 1.275912264828e-02 7.029622793198e-06 5.153749485016e+03
    2.592000000000e+05-5.774199962616e-08 1.708460013589e-01-1.769512891769e-07
    9.558631228730e-01 2.402812500000e+02-2.464899394691e+00-7.960331579762e-09
    2.232235838726e-10 1.000000000000e+00 2.055000000000e+03 0.000000000000e+00
    2.400000000000e+00 0.000000000000e+00-1.117587089539e-08 6.800000000000e+01
    2.520000000000e+05 4.000000000000e+00
 5 19  5 29  0  0  0.0 7.669441401958e-07-1.136868377216e-13 0.000000000000e+00
    6.900000000000e+01-4.515625000000e+01 5.105212652599e-09 1.503223081561e-02
   -2.287328243256e-06 5.641384399496e-03 5.517154932022e-06 5.153693696976e+03
    2.592000000000e+05-4.097819328308e-08-1.964184741344e+00 1.676380634308e-08
    9.495061484109e-01 2.632500000000e+02 7.105014741869e-01-8.475710190207e-09
   -2.689397738497e-10 1.000000000000e+00 2.055000000000e+03 0.000000000000e+00
    2.400000000000e+00 0.000000000000e+00-1.117587089539e-08 6.900000000000e+01
    2.520000000000e+05 4.000000000000e+00
 6 19  5 29  0  0  0.0 1.931120641530e-04-1.034550223267e-11 0.000000000000e+00
    6.400000000000e+01 1.734375000000e+01 4.426255799892e-09-2.764413675646e+00
    1.011416316032e-06 1.535232411698e-03 6.679445505142e-06 5.153590040207e+03
    2.592000000000e+05-6.146728992462e-08-2.987702172668e+00 7.823109626770e-08
    9.755881886154e-01 2.595625000000e+02-1.074019114533e+00-7.995333037714e-09
    3.782300405137e-10 1.000000000000e+00 2.055000000000e+03 0.000000000000e+00
    2.400000000000e+00 0.000000000000e+00 4.190951585770e-09 6.400000000000e+01
    2.520000000000e+05 4.000000000000e+00
 4 19  5 29  0  0  0.0 1.639206893742e-04 2.614797267597e-12 0.000000000000e+00
    7.600000000000e+01-7.031250000000e+00 4.415898225600e-09 2.496316839033e+00
   -3.650784492493e-07 4.361598985270e-04 1.041963696480e-05 5.153750907898e+03
    2.592000000000e+05 2.048909664154e-08-8.595931112863e-01 9.313225746155e-09
    9.597883164073e-01 1.760937500000e+02-1.520692220832e+00-7.884614140113e-09
   -1.692927660089e-10 1.000000000000e+00 2.055000000000e+03 0.000000000000e+00
    7.680000000000e+02 6.300000000000e+01-8.847564458847e-09 8.440000000000e+02
    2.520000000000e+05 4.000000000000e+00
27 19  5 29  0  0  0.0-1.435466110706e-04-9.663381206337e-12 0.000000000000e+00
    3.400000000000e+01-1.225000000000e+01 4.027310610795e-09-8.017686409507e-01
   -5.345791578293e-07 7.129369769245e-03 9.812414646149e-06 5.153645849228e+03
    2.592000000000e+05 1.527369022369e-07 2.248621274250e+00 3.725290298462e-08
    9.785861159140e-01 1.974375000000e+02 4.950590222925e-01-7.852827101769e-09
    6.785996949726e-11 1.000000000000e+00 2.055000000000e+03 0.000000000000e+00
    2.400000000000e+00 0.000000000000e+00 1.396983861923e-09 3.400000000000e+01
    2.520000000000e+05 4.000000000000e+00
30 19  5 29  0  0  0.0-1.133633777499e-04-7.162270776462e-12 0.000000000000e+00
    3.000000000000e+01 7.018750000000e+01 4.989136388985e-09 2.732808897328e+00
    3.635883331299e-06 4.064573207870e-03 6.394460797310e-06 5.153587306976e+03
    2.592000000000e+05-1.024454832077e-07 1.989881637643e-01 0.000000000000e+00
    9.413078808858e-01 2.464062500000e+02-2.963708330988e+00-8.327846888250e-09
    1.710785546799e-10 1.000000000000e+00 2.055000000000e+03 0.000000000000e+00
    2.400000000000e+00 0.000000000000e+00 3.725290298462e-09 3.000000000000e+01
    2.520000000000e+05 4.000000000000e+00
31 19  5 29  0  0  0.0 3.494322299957e-05-2.614797267597e-12 0.000000000000e+00
    2.200000000000e+01 6.778125000000e+01 4.603406036053e-09 2.363188151472e+00
    3.501772880554e-06 9.194148238748e-03 6.616115570068e-06 5.153616847992e+03
    2.592000000000e+05-7.450580596924e-08 1.849004835616e-01 5.215406417847e-08
    9.604050417078e-01 2.547187500000e+02 5.454336452149e-03-8.102123200238e-09
    1.167905790821e-10 1.000000000000e+00 2.055000000000e+03 0.000000000000e+00
    2.400000000000e+00 0.000000000000e+00-1.350417733192e-08 2.200000000000e+01
    2.520000000000e+05 4.000000000000e+00
29 19  5 29  0  0  0.0 1.902026124299e-04-9.436007530894e-12 0.000000000000e+00
    2.400000000000e+01-4.468750000000e+00 3.868375419078e-09-2.205952619124e-01
   -4.973262548447e-07 1.099720597267e-03 9.611248970032e-06 5.153751134872e+03
    2.592000000000e+05-9.313225746155e-09 2.315945848281e+00 1.676380634308e-08
    9.856329762097e-01 2.092500000000e+02 1.697906986310e+00-7.716750005041e-09
    9.928985010651e-11 1.000000000000e+00 2.055000000000e+03 0.000000000000e+00
    2.400000000000e+00 0.000000000000e+00-9.778887033463e-09 2.400000000000e+01
    2.520000000000e+05 4.000000000000e+00
20 19  5 29  0  0  0.0 5.250303074718e-04 2.273736754432e-13 0.000000000000e+00
    2.000000000000e+01-4.753125000000e+01 5.565588971978e-09 2.954422018142e+00
   -2.359971404076e-06 4.423436243087e-03 5.325302481651e-06 5.153688371658e+03
    2.592000000000e+05-1.303851604462e-08-2.059133720350e+00 1.732259988785e-07
    9.304556239544e-01 2.609062500000e+02 2.367385064485e+00-8.584643299137e-09
   -1.639353999960e-10 1.000000000000e+00 2.055000000000e+03 0.000000000000e+00
    2.400000000000e+00 0.000000000000e+00-8.847564458847e-09 2.000000000000e+01
    2.520000000000e+05 4.000000000000e+00
16 19  5 29  0  0  0.0-4.369067028165e-05-2.955857780762e-12 0.000000000000e+00
    5.200000000000e+01-2.346875000000e+01 4.128743407307e-09 1.056586189799e-01
   -1.084059476852e-06 1.079541840591e-02 5.848705768585e-06 5.153577341080e+03
    2.592000000000e+05 1.210719347000e-07 1.289858839387e+00 1.601874828339e-07
    9.829521129981e-01 2.790625000000e+02 5.791704774151e-01-8.133553080847e-09
   -1.989368579472e-10 1.000000000000e+00 2.055000000000e+03 0.000000000000e+00
    2.400000000000e+00 0.000000000000e+00-1.071020960808e-08 5.200000000000e+01
    2.520000000000e+05 4.000000000000e+00
